0 TITAN 3C TRANSTAGE DEB
1 25001U 68081H   13276.83805615  .00000053  00000-0  10000-3 0  3778
2 25001 007.6869 320.7890 0062476 345.9604 013.7883 01.01699299 71140
0 TITAN 3C TRANSTAGE DEB
1 25001U 68081H   13278.80454028  .00000034  00000-0  10000-3 0  3785
2 25001 007.6844 320.7790 0063194 345.4145 014.2998 01.01699792 71168
0 TITAN 3C TRANSTAGE DEB
1 25001U 68081H   13281.75431386 -.00000036  00000-0  10000-3 0  3799
2 25001 007.6814 320.7589 0062799 345.8290 013.9242 01.01701365 71197
0 TITAN 3C TRANSTAGE DEB
1 25001U 68081H   13282.73751416 -.00000068  00000-0  10000-3 0  3804
2 25001 007.6800 320.7520 0063447 345.0934 014.6311 01.01701804 71200
0 TITAN 3C TRANSTAGE DEB
1 25001U 68081H   13285.68721723 -.00000177  00000-0  10000-3 0  3811
2 25001 007.6765 320.7350 0063655 345.0586 014.6698 01.01703176 71230
0 TITAN 3C TRANSTAGE DEB
1 25001U 68081H   13287.65360178 -.00000243  00000-0  10000-3 0  3839
2 25001 007.6741 320.7234 0064126 344.6468 015.0541 01.01703821 71254
0 TITAN 3C TRANSTAGE DEB
1 25001U 68081H   13287.65361813 -.00000243  00000-0  10000-3 0  3825
2 25001 007.6740 320.7225 0064417 343.7245 015.9767 01.01703858 71258
0 TITAN 3C TRANSTAGE DEB
1 25001U 68081H   13289.61999690 -.00000291  00000-0  10000-3 0  3848
2 25001 007.6717 320.7111 0064544 343.6870 015.9929 01.01704166 71275
0 TITAN 3C TRANSTAGE DEB
1 25001U 68081H   13290.60321332  .00000000  00000-0  10000-3 0  3860
2 25001 007.6712 320.7150 0067553 342.9467 016.7145 01.01700412 71280
